{
  "type": "FeatureCollection",
  "features": [
    {
      "type": "Feature",
      "properties": {
        "norad_id": 19071,
        "name": "OSCAR 32",
        "group": "nnss",
        "lat": 87.92796005951043,
        "lon": 7.891783720695085,
        "alt_km": 1061.587378498678,
        "timestamp": "2025-12-21T16:47:55.006855+00:00",
        "meta_object_name": "OSCAR 32",
        "meta_object_id": "1988-033B",
        "meta_epoch": "2025-12-21T11:31:37.939872",
        "meta_mean_motion": 13.27955321,
        "meta_eccentricity": 0.018901,
        "meta_inclination": 90.3209,
        "meta_ra_of_asc_node": 16.7957,
        "meta_arg_of_pericenter": 142.5762,
        "meta_mean_anomaly": 337.7006,
        "meta_ephemeris_type": 0,
        "meta_classification_type": "U",
        "meta_norad_cat_id": 19071,
        "meta_element_set_no": 999,
        "meta_rev_at_epoch": 82381,
        "meta_bstar": 0.00015318,
        "meta_mean_motion_dot": 8.6e-07,
        "meta_mean_motion_ddot": 0,
        "tle_line1": "1 19071U 88033B   25355.48030023  .00000086  00000+0  15318-3 0  9994",
        "tle_line2": "2 19071  90.3209  16.7957 0189010 142.5762 337.7006 13.27955321823810"
      },
      "geometry": {
        "type": "Point",
        "coordinates": [
          7.891783720695085,
          87.92796005951043
        ]
      }
    },
    {
      "type": "Feature",
      "properties": {
        "norad_id": 19223,
        "name": "NOVA 2",
        "group": "nnss",
        "lat": 54.41037473652536,
        "lon": -101.75693626611475,
        "alt_km": 1183.8818071301375,
        "timestamp": "2025-12-21T16:47:55.006865+00:00",
        "meta_object_name": "NOVA 2",
        "meta_object_id": "1988-052A",
        "meta_epoch": "2025-12-21T12:35:31.602048",
        "meta_mean_motion": 13.22936749,
        "meta_eccentricity": 0.0029851,
        "meta_inclination": 89.9869,
        "meta_ra_of_asc_node": 78.2616,
        "meta_arg_of_pericenter": 352.6219,
        "meta_mean_anomaly": 18.401,
        "meta_ephemeris_type": 0,
        "meta_classification_type": "U",
        "meta_norad_cat_id": 19223,
        "meta_element_set_no": 999,
        "meta_rev_at_epoch": 81064,
        "meta_bstar": 0.00012002,
        "meta_mean_motion_dot": 5.9e-07,
        "meta_mean_motion_ddot": 0,
        "tle_line1": "1 19223U 88052A   25355.52467132  .00000059  00000+0  12002-3 0  9991",
        "tle_line2": "2 19223  89.9869  78.2616 0029851 352.6219  18.4010 13.22936749810640"
      },
      "geometry": {
        "type": "Point",
        "coordinates": [
          -101.75693626611475,
          54.41037473652536
        ]
      }
    },
    {
      "type": "Feature",
      "properties": {
        "norad_id": 19419,
        "name": "OSCAR 25",
        "group": "nnss",
        "lat": 65.33883329764771,
        "lon": -159.65264117828477,
        "alt_km": 1111.3429209812302,
        "timestamp": "2025-12-21T16:47:55.006875+00:00",
        "meta_object_name": "OSCAR 25",
        "meta_object_id": "1988-074A",
        "meta_epoch": "2025-12-21T02:00:29.261664",
        "meta_mean_motion": 13.4262484,
        "meta_eccentricity": 0.00949094,
        "meta_inclination": 90.0339,
        "meta_ra_of_asc_node": 20.2714,
        "meta_arg_of_pericenter": 221.6823,
        "meta_mean_anomaly": 157.0344,
        "meta_ephemeris_type": 0,
        "meta_classification_type": "U",
        "meta_norad_cat_id": 19419,
        "meta_element_set_no": 999,
        "meta_rev_at_epoch": 82752,
        "meta_bstar": 0.00013959585,
        "meta_mean_motion_dot": 9e-07,
        "meta_mean_motion_ddot": 0,
        "tle_line1": "1 19419U 88074A   25355.08367201  .00000090  00000+0  13960-3 0  9998",
        "tle_line2": "2 19419  90.0339  20.2714 0094909 221.6823 157.0344 13.42624840827523"
      },
      "geometry": {
        "type": "Point",
        "coordinates": [
          -159.65264117828477,
          65.33883329764771
        ]
      }
    },
    {
      "type": "Feature",
      "properties": {
        "norad_id": 19420,
        "name": "OSCAR 31",
        "group": "nnss",
        "lat": -1.3035050892532474,
        "lon": 20.62550450459408,
        "alt_km": 1159.550660969313,
        "timestamp": "2025-12-21T16:47:55.006885+00:00",
        "meta_object_name": "OSCAR 31",
        "meta_object_id": "1988-074B",
        "meta_epoch": "2025-12-21T12:02:25.653984",
        "meta_mean_motion": 13.42586133,
        "meta_eccentricity": 0.0093308,
        "meta_inclination": 90.0354,
        "meta_ra_of_asc_node": 20.624,
        "meta_arg_of_pericenter": 214.619,
        "meta_mean_anomaly": 265.9026,
        "meta_ephemeris_type": 0,
        "meta_classification_type": "U",
        "meta_norad_cat_id": 19420,
        "meta_element_set_no": 999,
        "meta_rev_at_epoch": 82768,
        "meta_bstar": 0.00014157,
        "meta_mean_motion_dot": 9.1e-07,
        "meta_mean_motion_ddot": 0,
        "tle_line1": "1 19420U 88074B   25355.50168581  .00000091  00000+0  14157-3 0  9997",
        "tle_line2": "2 19420  90.0354  20.6240 0093308 214.6190 265.9026 13.42586133827686"
      },
      "geometry": {
        "type": "Point",
        "coordinates": [
          20.62550450459408,
          -1.3035050892532474
        ]
      }
    }
  ]
}